{
  "type": "FeatureCollection",
  "features": [
    {
      "type": "Feature",
      "properties": {
        "norad_id": 66534,
        "name": "STARLINK-35976",
        "group": "last-30-days",
        "lat": 41.173914409850425,
        "lon": -174.14276743843504,
        "alt_km": 339.0074619545512,
        "timestamp": "2025-12-02T07:10:07.867556+00:00",
        "meta_object_name": "STARLINK-35976",
        "meta_object_id": "2025-265U",
        "meta_epoch": "2025-12-01T20:00:01.999008",
        "meta_mean_motion": 15.75028865,
        "meta_eccentricity": 0.0001824,
        "meta_inclination": 42.9999,
        "meta_ra_of_asc_node": 118.861,
        "meta_arg_of_pericenter": 275.6768,
        "meta_mean_anomaly": 37.4716,
        "meta_ephemeris_type": 0,
        "meta_classification_type": "U",
        "meta_norad_cat_id": 66534,
        "meta_element_set_no": 999,
        "meta_rev_at_epoch": 324,
        "meta_bstar": 0.00022125,
        "meta_mean_motion_dot": 0.00033629,
        "meta_mean_motion_ddot": 0,
        "tle_line1": "1 66534U 25265U   25335.83335647  .00033629  00000+0  22125-3 0  9998",
        "tle_line2": "2 66534  42.9999 118.8610 0001824 275.6768  37.4716 15.75028865  3243"
      },
      "geometry": {
        "type": "Point",
        "coordinates": [
          -174.14276743843504,
          41.173914409850425
        ]
      }
    },
    {
      "type": "Feature",
      "properties": {
        "norad_id": 66535,
        "name": "STARLINK-35514",
        "group": "last-30-days",
        "lat": 41.592917236344576,
        "lon": -171.68704891784796,
        "alt_km": 339.0600448628238,
        "timestamp": "2025-12-02T07:10:07.867576+00:00",
        "meta_object_name": "STARLINK-35514",
        "meta_object_id": "2025-265V",
        "meta_epoch": "2025-12-01T20:00:01.999008",
        "meta_mean_motion": 15.75059884,
        "meta_eccentricity": 0.0001757,
        "meta_inclination": 42.9998,
        "meta_ra_of_asc_node": 118.8562,
        "meta_arg_of_pericenter": 278.0056,
        "meta_mean_anomaly": 37.0527,
        "meta_ephemeris_type": 0,
        "meta_classification_type": "U",
        "meta_norad_cat_id": 66535,
        "meta_element_set_no": 999,
        "meta_rev_at_epoch": 324,
        "meta_bstar": -0.00037599,
        "meta_mean_motion_dot": -0.00057892,
        "meta_mean_motion_ddot": 0,
        "tle_line1": "1 66535U 25265V   25335.83335647 -.00057892  00000+0 -37599-3 0  9990",
        "tle_line2": "2 66535  42.9998 118.8562 0001757 278.0056  37.0527 15.75059884  3242"
      },
      "geometry": {
        "type": "Point",
        "coordinates": [
          -171.68704891784796,
          41.592917236344576
        ]
      }
    },
    {
      "type": "Feature",
      "properties": {
        "norad_id": 66536,
        "name": "STARLINK-35640",
        "group": "last-30-days",
        "lat": 41.965519746164084,
        "lon": -169.15215519115083,
        "alt_km": 338.85717292406207,
        "timestamp": "2025-12-02T07:10:07.867594+00:00",
        "meta_object_name": "STARLINK-35640",
        "meta_object_id": "2025-265W",
        "meta_epoch": "2025-12-01T20:00:01.999008",
        "meta_mean_motion": 15.75069722,
        "meta_eccentricity": 0.0001479,
        "meta_inclination": 42.9998,
        "meta_ra_of_asc_node": 118.8516,
        "meta_arg_of_pericenter": 274.6566,
        "meta_mean_anomaly": 42.3206,
        "meta_ephemeris_type": 0,
        "meta_classification_type": "U",
        "meta_norad_cat_id": 66536,
        "meta_element_set_no": 999,
        "meta_rev_at_epoch": 322,
        "meta_bstar": -0.00042024,
        "meta_mean_motion_dot": -0.00064624,
        "meta_mean_motion_ddot": 0,
        "tle_line1": "1 66536U 25265W   25335.83335647 -.00064624  00000+0 -42024-3 0  9991",
        "tle_line2": "2 66536  42.9998 118.8516 0001479 274.6566  42.3206 15.75069722  3224"
      },
      "geometry": {
        "type": "Point",
        "coordinates": [
          -169.15215519115083,
          41.965519746164084
        ]
      }
    },
    {
      "type": "Feature",
      "properties": {
        "norad_id": 66537,
        "name": "STARLINK-35582",
        "group": "last-30-days",
        "lat": 42.282880605765286,
        "lon": -166.57808425651615,
        "alt_km": 338.6909426873044,
        "timestamp": "2025-12-02T07:10:07.867612+00:00",
        "meta_object_name": "STARLINK-35582",
        "meta_object_id": "2025-265X",
        "meta_epoch": "2025-12-01T20:00:01.999008",
        "meta_mean_motion": 15.75026878,
        "meta_eccentricity": 0.0001531,
        "meta_inclination": 42.9998,
        "meta_ra_of_asc_node": 118.8465,
        "meta_arg_of_pericenter": 268.0773,
        "meta_mean_anomaly": 50.8218,
        "meta_ephemeris_type": 0,
        "meta_classification_type": "U",
        "meta_norad_cat_id": 66537,
        "meta_element_set_no": 999,
        "meta_rev_at_epoch": 324,
        "meta_bstar": 0.00032085,
        "meta_mean_motion_dot": 0.00049068,
        "meta_mean_motion_ddot": 0,
        "tle_line1": "1 66537U 25265X   25335.83335647  .00049068  00000+0  32085-3 0  9991",
        "tle_line2": "2 66537  42.9998 118.8465 0001531 268.0773  50.8218 15.75026878  3248"
      },
      "geometry": {
        "type": "Point",
        "coordinates": [
          -166.57808425651615,
          42.282880605765286
        ]
      }
    },
    {
      "type": "Feature",
      "properties": {
        "norad_id": 66538,
        "name": "STARLINK-35577",
        "group": "last-30-days",
        "lat": 42.5399734661218,
        "lon": -164.00325855629129,
        "alt_km": 338.73665732446443,
        "timestamp": "2025-12-02T07:10:07.867630+00:00",
        "meta_object_name": "STARLINK-35577",
        "meta_object_id": "2025-265Y",
        "meta_epoch": "2025-12-01T20:00:01.999008",
        "meta_mean_motion": 15.75023164,
        "meta_eccentricity": 0.0001682,
        "meta_inclination": 42.9999,
        "meta_ra_of_asc_node": 118.8415,
        "meta_arg_of_pericenter": 266.7301,
        "meta_mean_anomaly": 54.0853,
        "meta_ephemeris_type": 0,
        "meta_classification_type": "U",
        "meta_norad_cat_id": 66538,
        "meta_element_set_no": 999,
        "meta_rev_at_epoch": 324,
        "meta_bstar": 0.00040411,
        "meta_mean_motion_dot": 0.00062012,
        "meta_mean_motion_ddot": 0,
        "tle_line1": "1 66538U 25265Y   25335.83335647  .00062012  00000+0  40411-3 0  9998",
        "tle_line2": "2 66538  42.9999 118.8415 0001682 266.7301  54.0853 15.75023164  3240"
      },
      "geometry": {
        "type": "Point",
        "coordinates": [
          -164.00325855629129,
          42.5399734661218
        ]
      }
    },
    {
      "type": "Feature",
      "properties": {
        "norad_id": 66539,
        "name": "STARLINK-35697",
        "group": "last-30-days",
        "lat": 42.7373152153244,
        "lon": -161.43200818532287,
        "alt_km": 338.9443642006954,
        "timestamp": "2025-12-02T07:10:07.867652+00:00",
        "meta_object_name": "STARLINK-35697",
        "meta_object_id": "2025-265Z",
        "meta_epoch": "2025-12-01T20:00:01.999008",
        "meta_mean_motion": 15.75029925,
        "meta_eccentricity": 0.0001957,
        "meta_inclination": 43,
        "meta_ra_of_asc_node": 118.8362,
        "meta_arg_of_pericenter": 273.4861,
        "meta_mean_anomaly": 49.2449,
        "meta_ephemeris_type": 0,
        "meta_classification_type": "U",
        "meta_norad_cat_id": 66539,
        "meta_element_set_no": 999,
        "meta_rev_at_epoch": 324,
        "meta_bstar": 0.00018454,
        "meta_mean_motion_dot": 0.00027953,
        "meta_mean_motion_ddot": 0,
        "tle_line1": "1 66539U 25265Z   25335.83335647  .00027953  00000+0  18454-3 0  9996",
        "tle_line2": "2 66539  43.0000 118.8362 0001957 273.4861  49.2449 15.75029925  3246"
      },
      "geometry": {
        "type": "Point",
        "coordinates": [
          -161.43200818532287,
          42.7373152153244
        ]
      }
    },
    {
      "type": "Feature",
      "properties": {
        "norad_id": 66540,
        "name": "STARLINK-35818",
        "group": "last-30-days",
        "lat": 42.8776265824648,
        "lon": -158.80697955655646,
        "alt_km": 338.66954727395023,
        "timestamp": "2025-12-02T07:10:07.867674+00:00",
        "meta_object_name": "STARLINK-35818",
        "meta_object_id": "2025-265AA",
        "meta_epoch": "2025-12-01T20:00:01.999008",
        "meta_mean_motion": 15.75040653,
        "meta_eccentricity": 0.0001644,
        "meta_inclination": 42.9995,
        "meta_ra_of_asc_node": 118.8316,
        "meta_arg_of_pericenter": 282.4183,
        "meta_mean_anomaly": 42.2301,
        "meta_ephemeris_type": 0,
        "meta_classification_type": "U",
        "meta_norad_cat_id": 66540,
        "meta_element_set_no": 999,
        "meta_rev_at_epoch": 324,
        "meta_bstar": 0.00013936,
        "meta_mean_motion_dot": 0.00020984,
        "meta_mean_motion_ddot": 0,
        "tle_line1": "1 66540U 25265AA  25335.83335647  .00020984  00000+0  13936-3 0  9995",
        "tle_line2": "2 66540  42.9995 118.8316 0001644 282.4183  42.2301 15.75040653  3249"
      },
      "geometry": {
        "type": "Point",
        "coordinates": [
          -158.80697955655646,
          42.8776265824648
        ]
      }
    }
  ]
}